[Satellite]
VERSION=1.1
NAME=XM-3 (RHYTHM)
NICKNAME=XM-3 (RHYTHM)
TLE1=1 28626U 05008A   15055.37288492 -.00000231  00000-0  10000-3 0  9997
TLE2=2 28626   0.0087 266.2675 0000679 178.9641 117.7739  1.00269693 36643
